[{"OBJECT_NAME":"TRANSPORTER-10 OBJECT AG","OBJECT_ID":"2024-043AG","EPOCH":"2026-03-09T22:12:45.387648","MEAN_MOTION":15.30759727,"ECCENTRICITY":0.00093005,"INCLINATION":97.5471,"RA_OF_ASC_NODE":205.7101,"ARG_OF_PERICENTER":226.5958,"MEAN_ANOMALY":133.4509,"EPHEMERIS_TYPE":0,"CLASSIFICATION_TYPE":"U","NORAD_CAT_ID":59128,"ELEMENT_SET_NO":999,"REV_AT_EPOCH":11192,"BSTAR":0.00032170115,"MEAN_MOTION_DOT":9.498e-5,"MEAN_MOTION_DDOT":0},{"OBJECT_NAME":"STARLINK-32093","OBJECT_ID":"2024-086V","EPOCH":"2026-03-09T09:04:01.889760","MEAN_MOTION":15.27575856,"ECCENTRICITY":0.00011966,"INCLINATION":43.0024,"RA_OF_ASC_NODE":61.7241,"ARG_OF_PERICENTER":261.46,"MEAN_ANOMALY":98.6116,"EPHEMERIS_TYPE":0,"CLASSIFICATION_TYPE":"U","NORAD_CAT_ID":59701,"ELEMENT_SET_NO":999,"REV_AT_EPOCH":10406,"BSTAR":-2.818447e-6,"MEAN_MOTION_DOT":-3.4e-6,"MEAN_MOTION_DDOT":0}]
